[{"OBJECT_NAME":"BEIDOU-3 M19 (C41)","OBJECT_ID":"2019-090A","EPOCH":"2026-04-26T12:41:07.837152","MEAN_MOTION":1.86231351,"ECCENTRICITY":0.0019771,"INCLINATION":56.5164,"RA_OF_ASC_NODE":64.4967,"ARG_OF_PERICENTER":296.1367,"MEAN_ANOMALY":163.2976,"EPHEMERIS_TYPE":0,"CLASSIFICATION_TYPE":"U","NORAD_CAT_ID":44864,"ELEMENT_SET_NO":999,"REV_AT_EPOCH":4327,"BSTAR":0,"MEAN_MOTION_DOT":-4.0e-7,"MEAN_MOTION_DDOT":0},{"OBJECT_NAME":"BEIDOU-3 M20 (C42)","OBJECT_ID":"2019-090B","EPOCH":"2026-04-26T09:49:20.534880","MEAN_MOTION":1.86231167,"ECCENTRICITY":0.0017474,"INCLINATION":56.518,"RA_OF_ASC_NODE":64.5353,"ARG_OF_PERICENTER":308.364,"MEAN_ANOMALY":160.6881,"EPHEMERIS_TYPE":0,"CLASSIFICATION_TYPE":"U","NORAD_CAT_ID":44865,"ELEMENT_SET_NO":999,"REV_AT_EPOCH":4325,"BSTAR":0,"MEAN_MOTION_DOT":-3.8e-7,"MEAN_MOTION_DDOT":0},{"OBJECT_NAME":"BEIDOU-3 G2 (C60)","OBJECT_ID":"2020-017A","EPOCH":"2026-04-26T23:02:09.642912","MEAN_MOTION":1.0027143,"ECCENTRICITY":0.00025443,"INCLINATION":2.7633,"RA_OF_ASC_NODE":46.5357,"ARG_OF_PERICENTER":348.1977,"MEAN_ANOMALY":245.8021,"EPHEMERIS_TYPE":0,"CLASSIFICATION_TYPE":"U","NORAD_CAT_ID":45344,"ELEMENT_SET_NO":999,"REV_AT_EPOCH":2274,"BSTAR":0,"MEAN_MOTION_DOT":-1.49e-6,"MEAN_MOTION_DDOT":0},{"OBJECT_NAME":"COSMOS 2545 (760)","OBJECT_ID":"2020-018A","EPOCH":"2026-04-26T03:16:45.753888","MEAN_MOTION":2.13102374,"ECCENTRICITY":0.00071747,"INCLINATION":64.3864,"RA_OF_ASC_NODE":314.2486,"ARG_OF_PERICENTER":238.9664,"MEAN_ANOMALY":120.9888,"EPHEMERIS_TYPE":0,"CLASSIFICATION_TYPE":"U","NORAD_CAT_ID":45358,"ELEMENT_SET_NO":999,"REV_AT_EPOCH":4755,"BSTAR":0,"MEAN_MOTION_DOT":-2.7e-7,"MEAN_MOTION_DDOT":0},{"OBJECT_NAME":"BEIDOU-3 G3 (C61)","OBJECT_ID":"2020-040A","EPOCH":"2026-04-26T22:38:57.492672","MEAN_MOTION":1.00270304,"ECCENTRICITY":0.00037565,"INCLINATION":2.3235,"RA_OF_ASC_NODE":67.2985,"ARG_OF_PERICENTER":329.8075,"MEAN_ANOMALY":268.1123,"EPHEMERIS_TYPE":0,"CLASSIFICATION_TYPE":"U","NORAD_CAT_ID":45807,"ELEMENT_SET_NO":999,"REV_AT_EPOCH":2155,"BSTAR":0,"MEAN_MOTION_DOT":-3.63e-6,"MEAN_MOTION_DDOT":0},{"OBJECT_NAME":"GPS BIII-3  (PRN 23)","OBJECT_ID":"2020-041A","EPOCH":"2026-04-26T02:27:08.454816","MEAN_MOTION":2.00559717,"ECCENTRICITY":0.00621913,"INCLINATION":56.6381,"RA_OF_ASC_NODE":30.9643,"ARG_OF_PERICENTER":205.0511,"MEAN_ANOMALY":313.8606,"EPHEMERIS_TYPE":0,"CLASSIFICATION_TYPE":"U","NORAD_CAT_ID":45854,"ELEMENT_SET_NO":999,"REV_AT_EPOCH":4299,"BSTAR":0,"MEAN_MOTION_DOT":-1.01e-6,"MEAN_MOTION_DDOT":0},{"OBJECT_NAME":"GALAXY 30 (WAAS/PRN 135)","OBJECT_ID":"2020-056C","EPOCH":"2026-04-26T16:23:46.745952","MEAN_MOTION":1.00271187,"ECCENTRICITY":0.00024795,"INCLINATION":0.0129,"RA_OF_ASC_NODE":235.3307,"ARG_OF_PERICENTER":173.0121,"MEAN_ANOMALY":287.2804,"EPHEMERIS_TYPE":0,"CLASSIFICATION_TYPE":"U","NORAD_CAT_ID":46114,"ELEMENT_SET_NO":999,"REV_AT_EPOCH":2077,"BSTAR":0,"MEAN_MOTION_DOT":0,"MEAN_MOTION_DDOT":0},{"OBJECT_NAME":"COSMOS 2547 (705K)","OBJECT_ID":"2020-075A","EPOCH":"2026-04-26T07:48:58.861728","MEAN_MOTION":2.13100274,"ECCENTRICITY":0.0008364,"INCLINATION":64.5968,"RA_OF_ASC_NODE":194.2055,"ARG_OF_PERICENTER":236.7383,"MEAN_ANOMALY":123.2291,"EPHEMERIS_TYPE":0,"CLASSIFICATION_TYPE":"U","NORAD_CAT_ID":46805,"ELEMENT_SET_NO":999,"REV_AT_EPOCH":4280,"BSTAR":0,"MEAN_MOTION_DOT":-1.2e-7,"MEAN_MOTION_DDOT":0},{"OBJECT_NAME":"GPS BIII-4  (PRN 14)","OBJECT_ID":"2020-078A","EPOCH":"2026-04-22T22:15:39.157056","MEAN_MOTION":2.00564823,"ECCENTRICITY":0.0070939,"INCLINATION":53.9891,"RA_OF_ASC_NODE":213.0193,"ARG_OF_PERICENTER":205.6597,"MEAN_ANOMALY":155.6852,"EPHEMERIS_TYPE":0,"CLASSIFICATION_TYPE":"U","NORAD_CAT_ID":46826,"ELEMENT_SET_NO":999,"REV_AT_EPOCH":4040,"BSTAR":0,"MEAN_MOTION_DOT":-1.7e-7,"MEAN_MOTION_DDOT":0},{"OBJECT_NAME":"GPS BIII-5  (PRN 11)","OBJECT_ID":"2021-054A","EPOCH":"2026-04-26T08:52:39.150912","MEAN_MOTION":2.0057231,"ECCENTRICITY":0.00240428,"INCLINATION":55.1971,"RA_OF_ASC_NODE":334.5423,"ARG_OF_PERICENTER":229.923,"MEAN_ANOMALY":282.5639,"EPHEMERIS_TYPE":0,"CLASSIFICATION_TYPE":"U","NORAD_CAT_ID":48859,"ELEMENT_SET_NO":999,"REV_AT_EPOCH":3571,"BSTAR":0,"MEAN_MOTION_DOT":-8.3e-7,"MEAN_MOTION_DDOT":0},{"OBJECT_NAME":"QZS-1R (QZSS/PRN 196)","OBJECT_ID":"2021-096A","EPOCH":"2026-04-26T18:53:02.815296","MEAN_MOTION":1.00273034,"ECCENTRICITY":0.07513784,"INCLINATION":37.3595,"RA_OF_ASC_NODE":80.3391,"ARG_OF_PERICENTER":270.8456,"MEAN_ANOMALY":282.559,"EPHEMERIS_TYPE":0,"CLASSIFICATION_TYPE":"U","NORAD_CAT_ID":49336,"ELEMENT_SET_NO":999,"REV_AT_EPOCH":1649,"BSTAR":0,"MEAN_MOTION_DOT":-2.35e-6,"MEAN_MOTION_DDOT":0},{"OBJECT_NAME":"GSAT0223 (GALILEO 27)","OBJECT_ID":"2021-116A","EPOCH":"2026-04-24T07:45:19.739232","MEAN_MOTION":1.7047548,"ECCENTRICITY":2.341e-5,"INCLINATION":57.1776,"RA_OF_ASC_NODE":343.1299,"ARG_OF_PERICENTER":233.2925,"MEAN_ANOMALY":308.954,"EPHEMERIS_TYPE":0,"CLASSIFICATION_TYPE":"U","NORAD_CAT_ID":49809,"ELEMENT_SET_NO":999,"REV_AT_EPOCH":2726,"BSTAR":0,"MEAN_MOTION_DOT":-8.8e-7,"MEAN_MOTION_DDOT":0},{"OBJECT_NAME":"GSAT0224 (GALILEO 28)","OBJECT_ID":"2021-116B","EPOCH":"2026-04-24T17:19:56.422848","MEAN_MOTION":1.70475626,"ECCENTRICITY":6.258e-5,"INCLINATION":57.1774,"RA_OF_ASC_NODE":343.118,"ARG_OF_PERICENTER":14.3979,"MEAN_ANOMALY":165.3634,"EPHEMERIS_TYPE":0,"CLASSIFICATION_TYPE":"U","NORAD_CAT_ID":49810,"ELEMENT_SET_NO":999,"REV_AT_EPOCH":2729,"BSTAR":0,"MEAN_MOTION_DOT":-8.9e-7,"MEAN_MOTION_DDOT":0},{"OBJECT_NAME":"COSMOS 2557 (706K)","OBJECT_ID":"2022-075A","EPOCH":"2026-04-26T23:01:53.361696","MEAN_MOTION":2.13101824,"ECCENTRICITY":0.00102158,"INCLINATION":64.3278,"RA_OF_ASC_NODE":316.29,"ARG_OF_PERICENTER":281.4007,"MEAN_ANOMALY":78.5125,"EPHEMERIS_TYPE":0,"CLASSIFICATION_TYPE":"U","NORAD_CAT_ID":52984,"ELEMENT_SET_NO":999,"REV_AT_EPOCH":2962,"BSTAR":0,"MEAN_MOTION_DOT":-3.3e-7,"MEAN_MOTION_DDOT":0},{"OBJECT_NAME":"COSMOS 2559 (707K)","OBJECT_ID":"2022-130A","EPOCH":"2026-04-25T20:10:29.959392","MEAN_MOTION":2.13101453,"ECCENTRICITY":0.00113649,"INCLINATION":64.3018,"RA_OF_ASC_NODE":316.4145,"ARG_OF_PERICENTER":176.1051,"MEAN_ANOMALY":183.932,"EPHEMERIS_TYPE":0,"CLASSIFICATION_TYPE":"U","NORAD_CAT_ID":54031,"ELEMENT_SET_NO":999,"REV_AT_EPOCH":2757,"BSTAR":0,"MEAN_MOTION_DOT":-2.9e-7,"MEAN_MOTION_DDOT":0},{"OBJECT_NAME":"COSMOS 2564 (761)","OBJECT_ID":"2022-161A","EPOCH":"2026-04-26T03:40:43.656384","MEAN_MOTION":2.13101951,"ECCENTRICITY":0.00110228,"INCLINATION":64.739,"RA_OF_ASC_NODE":194.4383,"ARG_OF_PERICENTER":219.5915,"MEAN_ANOMALY":140.3749,"EPHEMERIS_TYPE":0,"CLASSIFICATION_TYPE":"U","NORAD_CAT_ID":54377,"ELEMENT_SET_NO":999,"REV_AT_EPOCH":2652,"BSTAR":0,"MEAN_MOTION_DOT":-1.4e-7,"MEAN_MOTION_DDOT":0},{"OBJECT_NAME":"GPS BIII-6  (PRN 28)","OBJECT_ID":"2023-009A","EPOCH":"2026-04-26T03:49:32.691360","MEAN_MOTION":2.00574943,"ECCENTRICITY":0.00056152,"INCLINATION":55.1147,"RA_OF_ASC_NODE":150.5635,"ARG_OF_PERICENTER":315.2799,"MEAN_ANOMALY":82.808,"EPHEMERIS_TYPE":0,"CLASSIFICATION_TYPE":"U","NORAD_CAT_ID":55268,"ELEMENT_SET_NO":999,"REV_AT_EPOCH":2420,"BSTAR":0,"MEAN_MOTION_DOT":6.0e-7,"MEAN_MOTION_DDOT":0}]
